METAR KJFK 131451Z 04023G29KT 2SM FZRAPL BR BKN010 BKN014 OVC025 00/M01 A2978 RMK AO2
 PK WND 04031/1434 SFC VIS 2 1/2 PRESFR SLP083 FZRAB20SNE28 SNINCR 1/11 P0016 60035
 T00001011 58062 $=
