SPECI PABR 010816Z 20006KT 1/4SM R07/2000FT BR VV003 M21/M23 A3037 RMK
     AO2 T12111228
