SPECI KSBN 201535Z 11010KT 4SM -RA BR OVC006 02/01 A2970 RMK AO2 LTG
     DSNT SE AND S CIG 005V010 P0009
