METAR KDSM 201754Z 35015KT 1SM R31/P6000FT -PLSNRA BR OVC002 02/01 A2931
     RMK AO2 SFC VIS 1 1/4 GSB1658E02B47E50GRB02E11PLB50SNB54
     TSE23 SLP930 TS DSIPTD CB DSNT S MOV NE GR 1/2 P0030 60030
     I1000 I6000 T00170006 10028 20017
