METAR KFWA 211354Z 23022G30KT 10SM BKN023 BKN030 BKN055 02/M02 A2962 RMK
     AO2 PK WND 23034/1315 SNB14E36 SLP037 BKN055 V OVC P0000
     T00171022 $
