METAR KAPA 201453Z 31016G30KT 10SM FEW040 FEW075 SCT140 M04/M17 A2990
     RMK AO2 PK WND 31030/1431 SLP149 VIRGA DSNT SW SHSN OMTNS
     DSNT W-NW T10441167 51027
