SPECI PHNY 200213Z AUTO 29003KT 10SM BKN008 OVC016 24/22 A2999 RMK AO2
     TSNO CIG 006V010
