SPECI KMKG 211915Z 24027G36KT 3SM -SN BLSN OVC023 M03/M08 A2948 RMK AO2
     PK WND 22038/1858 VIS 1 1/4 RWY 14 P0000 T10281078 $=
