METAR KCOS 210054Z 30021G32KT 10SM FEW090 FEW200 00/M20 A2995 RMK AO2 PK
     WND 31032/0053 SLP187 APPARENT ROTOR CLOUD NW T00001200
