SPECI KTLH 211339Z 26014G29KT 1/4SM +TSRA OVC004CB 18/16 A3003 RMK AO2
     PK WND 28029/1331 WSHFT 1322 TWR VIS 1/2 TSB27RAB23 FRQ LTGIC
     OHD TS OHD MOV E P0035 $=
